[{"OBJECT_NAME":"STARLINK-2280","OBJECT_ID":"2021-021B","EPOCH":"2026-03-09T17:07:20.456544","MEAN_MOTION":15.2934668,"ECCENTRICITY":9.009e-5,"INCLINATION":53.1606,"RA_OF_ASC_NODE":257.8343,"ARG_OF_PERICENTER":86.4428,"MEAN_ANOMALY":273.6676,"EPHEMERIS_TYPE":0,"CLASSIFICATION_TYPE":"U","NORAD_CAT_ID":47861,"ELEMENT_SET_NO":999,"REV_AT_EPOCH":27640,"BSTAR":-4.2507093e-5,"MEAN_MOTION_DOT":-1.582e-5,"MEAN_MOTION_DDOT":0},{"OBJECT_NAME":"OBJECT G","OBJECT_ID":"2025-155G","EPOCH":"2026-03-09T22:09:56.639808","MEAN_MOTION":15.27590702,"ECCENTRICITY":0.00081871,"INCLINATION":97.4488,"RA_OF_ASC_NODE":37.3259,"ARG_OF_PERICENTER":154.1528,"MEAN_ANOMALY":206.0122,"EPHEMERIS_TYPE":0,"CLASSIFICATION_TYPE":"U","NORAD_CAT_ID":64882,"ELEMENT_SET_NO":999,"REV_AT_EPOCH":6559,"BSTAR":0.0004792617,"MEAN_MOTION_DOT":0.00012876,"MEAN_MOTION_DDOT":0}]
